NO-61
1 29664U 06055F   07340.84282790  .00226420  39151-4  15175-3 0  6917
2 29664 051.6223 251.5045 0001602 323.3216 036.7698 16.16378908 55793
HO-59
1 29484U 06041F   07340.63612453  .00043376  31410-5  22151-3 0  9218
2 29484 098.2641 058.2476 0155611 001.4824 358.7045 15.66018450 67921
CO-56
1 28941U 06005C   07340.61906957  .00019369  24688-5  17761-3 0  6850
2 28941 098.1101 061.6002 0201243 019.5221 341.3589 15.46812114100022
AO-51
1 28375U 04025K   07339.64108268  .00000022  00000-0  19246-4 0 09746
2 28375 098.0923 009.9487 0085175 023.1495 337.3496 14.40589323180390
CO-57
1 27848U 03031J   07340.01068523  .00000021  00000-0  30122-4 0  1385
2 27848 098.7180 345.1079 0009846 324.1682 035.8837 14.20360997229846
CO-55
1 27844U 03031E   07340.60185893  .00000047  00000-0  42209-4 0  1822
2 27844 098.7198 346.5517 0009458 319.4724 040.5750 14.20546918229954
SO-50
1 27607U 02058C   07339.88683510 -.00000011  00000-0  20479-4 0 04734
2 27607 064.5591 283.6917 0073601 318.5649 040.9862 14.71307827266387
NO-44
1 26931U 01043C   07339.71400922 -.00000310  00000-0 -88655-4 0 07491
2 26931 067.0523 065.6361 0005168 251.2884 108.7652 14.29503232322617
MO-46
1 26548U 00057D   07339.58234668  .00000148  00000-0  35742-4 0 09652
2 26548 064.5593 012.4069 0006023 349.4314 010.6685 14.83204440388959
GO-32
1 25397U 98043D   07339.78124342  .00000048  00000-0  39463-4 0 04685
2 25397 098.3933 019.2837 0002158 090.3588 269.7814 14.23135106488566
PO-28
1 22829U 93061G   07340.79817132  .00000019  00000-0  23388-4 0  8182
2 22829 098.3377 305.5077 0010762 082.1539 278.0884 14.30174151740480
IO-26
1 22826U 93061D   07340.57682193  .00000014  00000-0  21590-4 0  5435
2 22826 098.3505 304.1570 0009798 107.0645 253.1611 14.29471800740206
