Satellite: NO-61
Catalog number: 29664
Epoch time:      07340.84282790
Element set:     691
Inclination:      051.6223 deg
RA of node:       251.5045 deg
Eccentricity:    0.0001602
Arg of perigee:   323.3216 deg
Mean anomaly:     036.7698 deg
Mean motion:   16.16378908 rev/day
Decay rate:    2.26420e-03 rev/day^2
Epoch rev:            5579
Checksum:              311

Satellite: NO-61
Catalog number: 29664
Epoch time:      07340.84282790
Element set:     691
Inclination:      051.6223 deg
RA of node:       251.5045 deg
Eccentricity:    0.0001602
Arg of perigee:   323.3216 deg
Mean anomaly:     036.7698 deg
Mean motion:   16.16378908 rev/day
Decay rate:    2.26420e-03 rev/day^2
Epoch rev:            5579
Checksum:              311

Satellite: HO-59
Catalog number: 29484
Epoch time:      07340.63612453
Element set:     921
Inclination:      098.2641 deg
RA of node:       058.2476 deg
Eccentricity:    0.0155611
Arg of perigee:   001.4824 deg
Mean anomaly:     358.7045 deg
Mean motion:   15.66018450 rev/day
Decay rate:     4.3376e-04 rev/day^2
Epoch rev:            6792
Checksum:              320

Satellite: HO-59
Catalog number: 29484
Epoch time:      07340.63612453
Element set:     921
Inclination:      098.2641 deg
RA of node:       058.2476 deg
Eccentricity:    0.0155611
Arg of perigee:   001.4824 deg
Mean anomaly:     358.7045 deg
Mean motion:   15.66018450 rev/day
Decay rate:     4.3376e-04 rev/day^2
Epoch rev:            6792
Checksum:              320

Satellite: HO-59
Catalog number: 29484
Epoch time:      07340.63612453
Element set:     921
Inclination:      098.2641 deg
RA of node:       058.2476 deg
Eccentricity:    0.0155611
Arg of perigee:   001.4824 deg
Mean anomaly:     358.7045 deg
Mean motion:   15.66018450 rev/day
Decay rate:     4.3376e-04 rev/day^2
Epoch rev:            6792
Checksum:              320

Satellite: CO-56
Catalog number: 28941
Epoch time:      07340.61906957
Element set:     685
Inclination:      098.1101 deg
RA of node:       061.6002 deg
Eccentricity:    0.0201243
Arg of perigee:   019.5221 deg
Mean anomaly:     341.3589 deg
Mean motion:   15.46812114 rev/day
Decay rate:     1.9369e-04 rev/day^2
Epoch rev:           10002
Checksum:              283

Satellite: CO-56
Catalog number: 28941
Epoch time:      07340.61906957
Element set:     685
Inclination:      098.1101 deg
RA of node:       061.6002 deg
Eccentricity:    0.0201243
Arg of perigee:   019.5221 deg
Mean anomaly:     341.3589 deg
Mean motion:   15.46812114 rev/day
Decay rate:     1.9369e-04 rev/day^2
Epoch rev:           10002
Checksum:              283

Satellite: CO-56
Catalog number: 28941
Epoch time:      07340.61906957
Element set:     685
Inclination:      098.1101 deg
RA of node:       061.6002 deg
Eccentricity:    0.0201243
Arg of perigee:   019.5221 deg
Mean anomaly:     341.3589 deg
Mean motion:   15.46812114 rev/day
Decay rate:     1.9369e-04 rev/day^2
Epoch rev:           10002
Checksum:              283

Satellite: AO-51
Catalog number: 28375
Epoch time:      07339.64108268
Element set:    0974
Inclination:      098.0923 deg
RA of node:       009.9487 deg
Eccentricity:    0.0085175
Arg of perigee:   023.1495 deg
Mean anomaly:     337.3496 deg
Mean motion:   14.40589323 rev/day
Decay rate:        2.2e-07 rev/day^2
Epoch rev:           18039
Checksum:              336

Satellite: CO-57
Catalog number: 27848
Epoch time:      07340.01068523
Element set:     138
Inclination:      098.7180 deg
RA of node:       345.1079 deg
Eccentricity:    0.0009846
Arg of perigee:   324.1682 deg
Mean anomaly:     035.8837 deg
Mean motion:   14.20360997 rev/day
Decay rate:        2.1e-07 rev/day^2
Epoch rev:           22984
Checksum:              321

Satellite: CO-55
Catalog number: 27844
Epoch time:      07340.60185893
Element set:     182
Inclination:      098.7198 deg
RA of node:       346.5517 deg
Eccentricity:    0.0009458
Arg of perigee:   319.4724 deg
Mean anomaly:     040.5750 deg
Mean motion:   14.20546918 rev/day
Decay rate:        4.7e-07 rev/day^2
Epoch rev:           22995
Checksum:              339

Satellite: SO-50
Catalog number: 27607
Epoch time:      07339.88683510
Element set:    0473
Inclination:      064.5591 deg
RA of node:       283.6917 deg
Eccentricity:    0.0073601
Arg of perigee:   318.5649 deg
Mean anomaly:     040.9862 deg
Mean motion:   14.71307827 rev/day
Decay rate:       -1.1e-07 rev/day^2
Epoch rev:           26638
Checksum:              329

Satellite: NO-44
Catalog number: 26931
Epoch time:      07339.71400922
Element set:    0749
Inclination:      067.0523 deg
RA of node:       065.6361 deg
Eccentricity:    0.0005168
Arg of perigee:   251.2884 deg
Mean anomaly:     108.7652 deg
Mean motion:   14.29503232 rev/day
Decay rate:      -3.10e-06 rev/day^2
Epoch rev:           32261
Checksum:              285

Satellite: MO-46
Catalog number: 26548
Epoch time:      07339.58234668
Element set:    0965
Inclination:      064.5593 deg
RA of node:       012.4069 deg
Eccentricity:    0.0006023
Arg of perigee:   349.4314 deg
Mean anomaly:     010.6685 deg
Mean motion:   14.83204440 rev/day
Decay rate:       1.48e-06 rev/day^2
Epoch rev:           38895
Checksum:              324

Satellite: GO-32
Catalog number: 25397
Epoch time:      07339.78124342
Element set:    0468
Inclination:      098.3933 deg
RA of node:       019.2837 deg
Eccentricity:    0.0002158
Arg of perigee:   090.3588 deg
Mean anomaly:     269.7814 deg
Mean motion:   14.23135106 rev/day
Decay rate:        4.8e-07 rev/day^2
Epoch rev:           48856
Checksum:              333

Satellite: PO-28
Catalog number: 22829
Epoch time:      07340.79817132
Element set:     818
Inclination:      098.3377 deg
RA of node:       305.5077 deg
Eccentricity:    0.0010762
Arg of perigee:   082.1539 deg
Mean anomaly:     278.0884 deg
Mean motion:   14.30174151 rev/day
Decay rate:        1.9e-07 rev/day^2
Epoch rev:           74048
Checksum:              318

Satellite: IO-26
Catalog number: 22826
Epoch time:      07340.57682193
Element set:     543
Inclination:      098.3505 deg
RA of node:       304.1570 deg
Eccentricity:    0.0009798
Arg of perigee:   107.0645 deg
Mean anomaly:     253.1611 deg
Mean motion:   14.29471800 rev/day
Decay rate:        1.4e-07 rev/day^2
Epoch rev:           74020
Checksum:              285

